{
  "type": "FeatureCollection",
  "features": [
    {
      "type": "Feature",
      "properties": {
        "norad_id": 39160,
        "name": "VNREDSAT 1",
        "group": "resource",
        "lat": 26.157438504796286,
        "lon": -132.16518454459933,
        "alt_km": 676.1853499375393,
        "timestamp": "2025-12-14T16:47:40.339932+00:00",
        "meta_object_name": "VNREDSAT 1",
        "meta_object_id": "2013-021B",
        "meta_epoch": "2025-12-13T23:42:12.547008",
        "meta_mean_motion": 14.64925896,
        "meta_eccentricity": 0.00013081,
        "meta_inclination": 97.9372,
        "meta_ra_of_asc_node": 43.2186,
        "meta_arg_of_pericenter": 79.455,
        "meta_mean_anomaly": 280.6801,
        "meta_ephemeris_type": 0,
        "meta_classification_type": "U",
        "meta_norad_cat_id": 39160,
        "meta_element_set_no": 999,
        "meta_rev_at_epoch": 67317,
        "meta_bstar": 0.00020683809,
        "meta_mean_motion_dot": 1.061e-05,
        "meta_mean_motion_ddot": 0,
        "tle_line1": "1 39160U 13021B   25347.98764522  .00001061  00000+0  20684-3 0  9990",
        "tle_line2": "2 39160  97.9372  43.2186 0001308  79.4550 280.6801 14.64925896673177"
      },
      "geometry": {
        "type": "Point",
        "coordinates": [
          -132.16518454459933,
          26.157438504796286
        ]
      }
    },
    {
      "type": "Feature",
      "properties": {
        "norad_id": 39227,
        "name": "ARIRANG-5 (KOMPSAT-5)",
        "group": "resource",
        "lat": 28.85224614880828,
        "lon": -2.797762335314076,
        "alt_km": 552.1574377901507,
        "timestamp": "2025-12-14T16:47:40.339942+00:00",
        "meta_object_name": "ARIRANG-5 (KOMPSAT-5)",
        "meta_object_id": "2013-042A",
        "meta_epoch": "2025-12-14T00:09:53.961984",
        "meta_mean_motion": 15.0451652,
        "meta_eccentricity": 0.00035522,
        "meta_inclination": 97.6146,
        "meta_ra_of_asc_node": 172.2927,
        "meta_arg_of_pericenter": 52.0372,
        "meta_mean_anomaly": 308.1175,
        "meta_ephemeris_type": 0,
        "meta_classification_type": "U",
        "meta_norad_cat_id": 39227,
        "meta_element_set_no": 999,
        "meta_rev_at_epoch": 67601,
        "meta_bstar": 0.00034287638,
        "meta_mean_motion_dot": 4.743e-05,
        "meta_mean_motion_ddot": 0,
        "tle_line1": "1 39227U 13042A   25348.00687456  .00004743  00000+0  34288-3 0  9996",
        "tle_line2": "2 39227  97.6146 172.2927 0003552  52.0372 308.1175 15.04516520676016"
      },
      "geometry": {
        "type": "Point",
        "coordinates": [
          -2.797762335314076,
          28.85224614880828
        ]
      }
    },
    {
      "type": "Feature",
      "properties": {
        "norad_id": 39418,
        "name": "SKYSAT-A",
        "group": "resource",
        "lat": -33.52905479634188,
        "lon": -146.09912008590976,
        "alt_km": 523.7099310588546,
        "timestamp": "2025-12-14T16:47:40.339953+00:00",
        "meta_object_name": "SKYSAT-A",
        "meta_object_id": "2013-066C",
        "meta_epoch": "2025-12-13T22:22:29.760960",
        "meta_mean_motion": 15.11617108,
        "meta_eccentricity": 0.00207025,
        "meta_inclination": 97.4113,
        "meta_ra_of_asc_node": 38.1046,
        "meta_arg_of_pericenter": 232.0185,
        "meta_mean_anomaly": 127.9177,
        "meta_ephemeris_type": 0,
        "meta_classification_type": "U",
        "meta_norad_cat_id": 39418,
        "meta_element_set_no": 999,
        "meta_rev_at_epoch": 66048,
        "meta_bstar": 0.00025160952,
        "meta_mean_motion_dot": 4.232e-05,
        "meta_mean_motion_ddot": 0,
        "tle_line1": "1 39418U 13066C   25347.93228890  .00004232  00000+0  25161-3 0  9991",
        "tle_line2": "2 39418  97.4113  38.1046 0020702 232.0185 127.9177 15.11617108660485"
      },
      "geometry": {
        "type": "Point",
        "coordinates": [
          -146.09912008590976,
          -33.52905479634188
        ]
      }
    },
    {
      "type": "Feature",
      "properties": {
        "norad_id": 39419,
        "name": "DUBAISAT-2",
        "group": "resource",
        "lat": -26.777949413734014,
        "lon": -17.169133049626215,
        "alt_km": 540.0416841063025,
        "timestamp": "2025-12-14T16:47:40.339963+00:00",
        "meta_object_name": "DUBAISAT-2",
        "meta_object_id": "2013-066D",
        "meta_epoch": "2025-12-13T23:24:02.451168",
        "meta_mean_motion": 15.08380447,
        "meta_eccentricity": 0.00104491,
        "meta_inclination": 97.4455,
        "meta_ra_of_asc_node": 338.3443,
        "meta_arg_of_pericenter": 317.4318,
        "meta_mean_anomaly": 42.61,
        "meta_ephemeris_type": 0,
        "meta_classification_type": "U",
        "meta_norad_cat_id": 39419,
        "meta_element_set_no": 999,
        "meta_rev_at_epoch": 65845,
        "meta_bstar": 0.00049143256,
        "meta_mean_motion_dot": 7.589e-05,
        "meta_mean_motion_ddot": 0,
        "tle_line1": "1 39419U 13066D   25347.97502837  .00007589  00000+0  49143-3 0  9996",
        "tle_line2": "2 39419  97.4455 338.3443 0010449 317.4318  42.6100 15.08380447658456"
      },
      "geometry": {
        "type": "Point",
        "coordinates": [
          -17.169133049626215,
          -26.777949413734014
        ]
      }
    },
    {
      "type": "Feature",
      "properties": {
        "norad_id": 39574,
        "name": "GPM-CORE",
        "group": "resource",
        "lat": 8.596565737184324,
        "lon": -149.83142146438655,
        "alt_km": 437.4584953681515,
        "timestamp": "2025-12-14T16:47:40.339974+00:00",
        "meta_object_name": "GPM-CORE",
        "meta_object_id": "2014-009C",
        "meta_epoch": "2025-12-13T23:39:33.413760",
        "meta_mean_motion": 15.44491005,
        "meta_eccentricity": 0.00097716,
        "meta_inclination": 64.9735,
        "meta_ra_of_asc_node": 208.508,
        "meta_arg_of_pericenter": 245.6502,
        "meta_mean_anomaly": 114.3619,
        "meta_ephemeris_type": 0,
        "meta_classification_type": "U",
        "meta_norad_cat_id": 39574,
        "meta_element_set_no": 999,
        "meta_rev_at_epoch": 66920,
        "meta_bstar": 0.00019963331,
        "meta_mean_motion_dot": 9.074e-05,
        "meta_mean_motion_ddot": 0,
        "tle_line1": "1 39574U 14009C   25347.98580340  .00009074  00000+0  19963-3 0  9990",
        "tle_line2": "2 39574  64.9735 208.5080 0009771 245.6502 114.3619 15.44491005669206"
      },
      "geometry": {
        "type": "Point",
        "coordinates": [
          -149.83142146438655,
          8.596565737184324
        ]
      }
    },
    {
      "type": "Feature",
      "properties": {
        "norad_id": 39634,
        "name": "SENTINEL-1A",
        "group": "resource",
        "lat": -25.712256127549878,
        "lon": -2.115413671510617,
        "alt_km": 701.698501889944,
        "timestamp": "2025-12-14T16:47:40.339984+00:00",
        "meta_object_name": "SENTINEL-1A",
        "meta_object_id": "2014-016A",
        "meta_epoch": "2025-12-14T00:27:22.491648",
        "meta_mean_motion": 14.59197931,
        "meta_eccentricity": 0.00012296,
        "meta_inclination": 98.1807,
        "meta_ra_of_asc_node": 353.2418,
        "meta_arg_of_pericenter": 84.8832,
        "meta_mean_anomaly": 275.2508,
        "meta_ephemeris_type": 0,
        "meta_classification_type": "U",
        "meta_norad_cat_id": 39634,
        "meta_element_set_no": 999,
        "meta_rev_at_epoch": 62301,
        "meta_bstar": -0.00045384247,
        "meta_mean_motion_dot": -2.184e-05,
        "meta_mean_motion_ddot": 0,
        "tle_line1": "1 39634U 14016A   25348.01901032 -.00002184  00000+0 -45384-3 0  9998",
        "tle_line2": "2 39634  98.1807 353.2418 0001229  84.8832 275.2508 14.59197931623013"
      },
      "geometry": {
        "type": "Point",
        "coordinates": [
          -2.115413671510617,
          -25.712256127549878
        ]
      }
    },
    {
      "type": "Feature",
      "properties": {
        "norad_id": 39731,
        "name": "KAZEOSAT 1",
        "group": "resource",
        "lat": -7.977570833973924,
        "lon": -120.61572622112888,
        "alt_km": 755.6771674162383,
        "timestamp": "2025-12-14T16:47:40.339994+00:00",
        "meta_object_name": "KAZEOSAT 1",
        "meta_object_id": "2014-024A",
        "meta_epoch": "2025-12-13T23:16:24.048192",
        "meta_mean_motion": 14.42063848,
        "meta_eccentricity": 0.00011172,
        "meta_inclination": 98.3429,
        "meta_ra_of_asc_node": 59.8491,
        "meta_arg_of_pericenter": 96.0726,
        "meta_mean_anomaly": 264.0591,
        "meta_ephemeris_type": 0,
        "meta_classification_type": "U",
        "meta_norad_cat_id": 39731,
        "meta_element_set_no": 999,
        "meta_rev_at_epoch": 61186,
        "meta_bstar": 0.00013754841,
        "meta_mean_motion_dot": 4.09e-06,
        "meta_mean_motion_ddot": 0,
        "tle_line1": "1 39731U 14024A   25347.96972278  .00000409  00000+0  13755-3 0  9991",
        "tle_line2": "2 39731  98.3429  59.8491 0001117  96.0726 264.0591 14.42063848611865"
      },
      "geometry": {
        "type": "Point",
        "coordinates": [
          -120.61572622112888,
          -7.977570833973924
        ]
      }
    }
  ]
}